STARLINK-33674          
1 63329U 25057Y   25355.40233111  .00016910  00000+0  62243-3 0  9993
2 63329  43.0015 113.0384 0002778 275.1115  84.9419 15.27588815 43804
STARLINK-32840          
1 63363U 25063A   25355.46771918  .00023877  00000+0  81577-3 0  9997
2 63363  53.1582  52.9525 0001717  92.2990 267.8207 15.30196100 42804
STARLINK-32543          
1 63364U 25063B   25355.46664706 -.00019905  00000+0 -66153-3 0  9996
2 63364  53.1586  52.9450 0001192  94.2204 265.8933 15.30208067 42814
STARLINK-33741          
1 63365U 25063C   25355.48946834  .00017746  00000+0  60996-3 0  9992
2 63365  53.1608  55.9117 0001335  72.8576 287.2571 15.30194103 42783
STARLINK-33742          
1 63366U 25063D   25355.45675234  .00021998  00000+0  75229-3 0  9992
2 63366  53.1588  55.7094 0000829  81.3277 278.7818 15.30215338 42731
STARLINK-33734          
1 63367U 25063E   25355.47458162  .00022030  00000+0  75265-3 0  9992
2 63367  53.1612  65.7427 0001415  82.3310 277.7851 15.30246488 42592
STARLINK-33578          
1 63368U 25063F   25355.43300782  .00022741  00000+0  77731-3 0  9992
2 63368  53.1619  53.4338 0001646  95.1036 265.0153 15.30210781 42758
STARLINK-33626          
1 63369U 25063G   25355.44566919  .00016631  00000+0  57223-3 0  9995
2 63369  53.1592  53.5045 0001130  76.3262 283.7864 15.30209243 42763
STARLINK-33657          
1 63370U 25063H   25355.47680343  .00018523  00000+0  63571-3 0  9993
2 63370  53.1615  55.8305 0001909  82.2521 277.8697 15.30213010 42735
STARLINK-33648          
1 63371U 25063J   25355.48630163  .00005726  00000+0  20529-3 0  9997
2 63371  53.1598  55.8975 0001329  81.7080 278.4071 15.30199734 42783
STARLINK-33614          
1 63372U 25063K   25355.36558141  .00020482  00000+0  70133-3 0  9992
2 63372  53.1605  53.7212 0001377  91.4562 268.6596 15.30220381 42809
STARLINK-33617          
1 63373U 25063L   25355.36136175  .00036465  00000+0  12369-2 0  9996
2 63373  53.1607  53.6912 0001386  85.9891 274.1268 15.30208390 42759
STARLINK-33618          
1 63374U 25063M   25355.48882655  .00022129  00000+0  75719-3 0  9992
2 63374  53.1603  53.0647 0001545  59.8652 300.2502 15.30193660 42820
STARLINK-33621          
1 63375U 25063N   25355.48776831  .00019225  00000+0  65950-3 0  9990
2 63375  53.1611  53.0576 0001030 100.8782 259.2335 15.30202598 42773
STARLINK-33539          
1 63376U 25063P   25355.48198727  .00016093  00000+0  55414-3 0  9997
2 63376  53.1599  65.7860 0001336  94.7785 265.3368 15.30209468 42595
STARLINK-33634          
1 63377U 25063Q   25355.32295656  .00035312  00000+0  11978-2 0  9991
2 63377  53.1591  56.2926 0001180  77.3165 282.7968 15.30225414 42769
STARLINK-33640          
1 63378U 25063R   25355.45886194  .00018811  00000+0  64530-3 0  9997
2 63378  53.1585  55.7171 0001282  91.7977 268.3171 15.30216430 42789
STARLINK-33636          
1 63379U 25063S   25355.45042054  .00022626  00000+0  77330-3 0  9998
2 63379  53.1606  55.6673 0001071  87.2577 272.8546 15.30218268 42734
STARLINK-33653          
1 63380U 25063T   25355.46941606  .00015924  00000+0  54852-3 0  9999
2 63380  53.1581  55.7887 0001208 101.4572 258.6565 15.30205118 42735
STARLINK-33643          
1 63381U 25063U   25355.46413918  .00023050  00000+0  78794-3 0  9990
2 63381  53.1588  55.7516 0001054  73.7329 286.3787 15.30201084 42789
STARLINK-33633          
1 63382U 25063V   25355.37185125  .00033583  00000+0  96302-3 0  9994
2 63382  53.1618  52.3473 0001756  65.0931 295.0255 15.35605303 42774
STARLINK-33748          
1 63383U 25063W   25355.47154949  .00016542  00000+0  56932-3 0  9997
2 63383  53.1606  66.4447 0000736  73.1488 286.9593 15.30204173 42637
STARLINK-33658          
1 63384U 25063X   25355.48313389  .00022519  00000+0  77026-3 0  9992
2 63384  53.1588  55.8645 0001139  99.5975 260.5155 15.30193902 42785
STARLINK-33616          
1 63385U 25063Y   25355.46944102  .00019285  00000+0  66171-3 0  9999
2 63385  53.1615  66.4400 0001351  73.1537 286.9612 15.30191774 42585
STARLINK-33571          
1 63386U 25063Z   25355.51997632  .00018706  00000+0  64201-3 0  9991
2 63386  53.1602  66.0193 0001044  94.3895 265.7225 15.30205272 42593
STARLINK-33533          
1 63387U 25063AA  25355.43511784  .00023129  00000+0  79021-3 0  9994
2 63387  53.1607  53.4409 0001951  95.2222 264.9001 15.30215136 42762
STARLINK-33629          
1 63388U 25063AB  25355.44461463  .00022660  00000+0  77460-3 0  9998
2 63388  53.1599  53.4956 0001202  89.4880 270.6259 15.30210440 42812
STARLINK-33656          
1 63389U 25063AC  25354.62454877  .00019024  00000+0  65283-3 0  9999
2 63389  53.1581  59.7548 0001203  85.2908 274.8230 15.30198186 42655
STARLINK-33531          
1 63399U 25065A   25355.24406183  .00015500  00000+0  57189-3 0  9999
2 63399  42.9967 190.0208 0001816 267.9751  92.0892 15.27561770 40849
STARLINK-33652          
1 63400U 25065B   25354.89141044  .00011391  00000+0  42282-3 0  9996
2 63400  43.0006 191.6711 0001575 270.7734  89.2937 15.27580962 40795
STARLINK-33707          
1 63401U 25065C   25354.97864159  .00012214  00000+0  45253-3 0  9991
2 63401  42.9999 191.4705 0001243 268.5278  91.5431 15.27586877 40804
STARLINK-33668          
1 63402U 25065D   25355.51971877  .00017454  00000+0  64245-3 0  9992
2 63402  42.9980 188.6517 0001215 261.6849  98.3865 15.27571259 40883
STARLINK-33676          
1 63403U 25065E   25354.97735766  .00014863  00000+0  54852-3 0  9991
2 63403  42.9984 191.4583 0001544 274.5198  85.5477 15.27581517 40805
STARLINK-33711          
1 63404U 25065F   25354.62857933  .00014302  00000+0  52817-3 0  9992
2 63404  43.0005 193.1402 0001327 253.5944 106.4761 15.27584573 40754
STARLINK-33708          
1 63405U 25065G   25355.24275837  .00024413  00000+0  89388-3 0  9996
2 63405  42.9956 190.0042 0001495 271.3861  88.6819 15.27574748 40844
STARLINK-33690          
1 63406U 25065H   25354.95085808  .00017140  00000+0  63090-3 0  9992
2 63406  42.9984 187.7942 0001617 261.1920  98.8749 15.27581998 40847
STARLINK-33694          
1 63407U 25065J   25354.90813028  .00023262  00000+0  85304-3 0  9995
2 63407  42.9984 191.7874 0001527 268.1872  91.8805 15.27546902 40796
STARLINK-33692          
1 63408U 25065K   25355.27825249  .00017378  00000+0  63940-3 0  9998
2 63408  42.9987 193.7298 0001174 274.5573  85.5145 15.27587304 40809
STARLINK-33693          
1 63409U 25065L   25355.51458088  .00016070  00000+0  59205-3 0  9996
2 63409  42.9982 188.6033 0001283 269.5344  90.5361 15.27590068 40881
STARLINK-33677          
1 63410U 25065M   25355.24532590  .00016249  00000+0  59853-3 0  9996
2 63410  42.9979 190.0199 0001592 268.9305  91.1364 15.27589073 40842
STARLINK-33647          
1 63411U 25065N   25354.63932310  .00017862  00000+0  65678-3 0  9997
2 63411  42.9962 201.0038 0001100 199.7717 160.3093 15.27592118 40665
STARLINK-33645          
1 63412U 25065P   25354.91017362  .00013570  00000+0  50134-3 0  9993
2 63412  43.0002 195.1921 0002071 261.7423  98.3193 15.27605457 40751
STARLINK-33670          
1 63413U 25065Q   25355.24146516  .00015143  00000+0  55849-3 0  9991
2 63413  42.9965 189.9558 0001530 270.4412  89.6264 15.27590307 40848
STARLINK-33644          
1 63414U 25065R   25354.69924620  .00016768  00000+0  61733-3 0  9993
2 63414  42.9995 193.6145 0001366 268.0201  92.0494 15.27588396 40750
STARLINK-33664          
1 63415U 25065S   25354.92223985  .00014230  00000+0  52543-3 0  9997
2 63415  42.9987 191.8561 0001210 276.9537  83.1176 15.27591653 40794
STARLINK-33649          
1 63416U 25065T   25354.90938749  .00002292  00000+0  92792-4 0  9993
2 63416  42.9955 191.7426 0001278 269.1891  90.8814 15.27572115 40796
STARLINK-33535          
1 63417U 25065U   25354.85556787  .00020980  00000+0  76959-3 0  9996
2 63417  42.9981 192.1885 0001123 277.2878  82.7846 15.27587570 40789
STARLINK-33703          
1 63418U 25065V   25355.52999463  .00018067  00000+0  66428-3 0  9997
2 63418  43.0049 188.6759 0001928 277.6020  82.4612 15.27588196 40887
STARLINK-33709          
1 63419U 25065W   25355.53385093  .00016621  00000+0  61200-3 0  9994
2 63419  43.0032 188.7068 0001732 282.1443  77.9215 15.27587680 40882
STARLINK-33698          
1 63420U 25065X   25355.42475135  .00029923  00000+0  10906-2 0  9996
2 63420  42.9971 188.7190 0001163 276.1430  83.9289 15.27638329 40871
STARLINK-33606          
1 63421U 25065Y   25355.24659810  .00020589  00000+0  75516-3 0  9999
2 63421  42.9931 189.9745 0001855 268.0710  91.9929 15.27600041 40843
STARLINK-33686          
1 63422U 25065Z   25355.51842753  .00014123  00000+0  52154-3 0  9990
2 63422  42.9962 188.5753 0000691 270.8663  89.2109 15.27594344 40889
STARLINK-33675          
1 63423U 25065AA  25354.83243984  .00013526  00000+0  50008-3 0  9998
2 63423  42.9971 192.0212 0001211 261.7872  98.2842 15.27584036 40780
STARLINK-33655          
1 63424U 25065AB  25354.82230367  .00012579  00000+0  46577-3 0  9992
2 63424  42.9999 192.8067 0001699 269.5556  90.5101 15.27586084 40779
STARLINK-33608          
1 63425U 25065AC  25355.51585630  .00016781  00000+0  61780-3 0  9998
2 63425  43.0008 188.5447 0001740 262.6513  97.4141 15.27586582 40886
STARLINK-33615          
1 63426U 25065AD  25355.27617728  .00019314  00000+0  70990-3 0  9994
2 63426  43.0005 190.2028 0001351 267.6175  92.4522 15.27563693 40848
STARLINK-33682          
1 63433U 25069A   25354.85183398  .00018146  00000+0  62335-3 0  9996
2 63433  53.1579 148.7212 0001029  75.7708 284.3407 15.30196465 41331
STARLINK-33710          
1 63434U 25069B   25355.12997588  .00016444  00000+0  56586-3 0  9992
2 63434  53.1566 147.6142 0001005  83.7236 276.3879 15.30213283 41373
STARLINK-33733          
1 63435U 25069C   25354.80023747  .00013764  00000+0  47597-3 0  9998
2 63435  53.1560 149.1096 0000816  98.3600 261.7493 15.30199716 41328
